[{"OBJECT_NAME":"STARLINK-32206","OBJECT_ID":"2024-131U","EPOCH":"2026-03-09T22:33:26.025984","MEAN_MOTION":15.30181352,"ECCENTRICITY":0.00016433,"INCLINATION":53.161,"RA_OF_ASC_NODE":51.5102,"ARG_OF_PERICENTER":96.5988,"MEAN_ANOMALY":263.52,"EPHEMERIS_TYPE":0,"CLASSIFICATION_TYPE":"U","NORAD_CAT_ID":60273,"ELEMENT_SET_NO":999,"REV_AT_EPOCH":9175,"BSTAR":5.3885013e-5,"MEAN_MOTION_DOT":1.236e-5,"MEAN_MOTION_DDOT":0},{"OBJECT_NAME":"CZ-2C DEB","OBJECT_ID":"2018-056F","EPOCH":"2026-03-09T10:57:26.102304","MEAN_MOTION":15.27739248,"ECCENTRICITY":0.00119172,"INCLINATION":98.1188,"RA_OF_ASC_NODE":250.032,"ARG_OF_PERICENTER":4.6998,"MEAN_ANOMALY":355.4349,"EPHEMERIS_TYPE":0,"CLASSIFICATION_TYPE":"U","NORAD_CAT_ID":43534,"ELEMENT_SET_NO":999,"REV_AT_EPOCH":41855,"BSTAR":0.00085537155,"MEAN_MOTION_DOT":0.00023193,"MEAN_MOTION_DDOT":0}]
